CCSDS_OEM_VERS = 2.0
CREATION_DATE = 2024-09-26T03:00:53.874000000
ORIGINATOR = NONE

META_START
OBJECT_NAME = _SCPACE_OEM
OBJECT_ID = 1
CENTER_NAME = EARTH
REF_FRAME = EME2000
TIME_SYSTEM = UTC
START_TIME = 2024-09-24T16:00:00.000000000
STOP_TIME = 2024-09-26T00:00:00.000000000
INTERPOLATION = LAGRANGE
INTERPOLATION_DEGREE = 8
META_STOP

2024-09-25T21:27:00.000000000 -6.550413489316969e+03 -2.116591623791435e+03  1.533844322754284e+03  1.218189280912706e+00  1.526827281244983e+00  7.262381722581139e+00
2024-09-25T21:28:00.000000000 -6.463965597303719e+03 -2.020712401474048e+03  1.966141802773498e+03  1.662425110994661e+00  1.668055345915023e+00  7.142593012492010e+00
2024-09-25T21:29:00.000000000 -6.351057891239874e+03 -1.916561206957382e+03  2.390369874113449e+03  2.099873692485251e+00  1.802461076275582e+00  6.993484304476900e+00
2024-09-25T21:30:00.000000000 -6.212152356162585e+03 -1.804564426547148e+03  2.804786546742009e+03  2.528726163994746e+00  1.929488371204295e+00  6.815672430329346e+00
2024-09-25T21:31:00.000000000 -6.047817898094610e+03 -1.685180539877542e+03  3.207691566450635e+03  2.947212009604962e+00  2.048612879434517e+00  6.609894563854929e+00
2024-09-25T21:32:00.000000000 -5.858728436985240e+03 -1.558898558490354e+03  3.597432160230398e+03  3.353605185838063e+00  2.159343594045926e+00  6.377004966866897e+00
2024-09-25T21:33:00.000000000 -5.645660493579040e+03 -1.426236198476961e+03  3.972409537058078e+03  3.746231284195358e+00  2.261224982745562e+00  6.117971760942382e+00
2024-09-25T21:34:00.000000000 -5.409488392536076e+03 -1.287736912086225e+03  4.331087388715741e+03  4.123477401801786e+00  2.353839814877821e+00  5.833870858733701e+00
2024-09-25T21:35:00.000000000 -5.151181767300582e+03 -1.143968297002029e+03  4.671996319741960e+03  4.483796578534422e+00  2.436810110448765e+00  5.525880888876514e+00
2024-09-25T21:36:00.000000000 -4.871800841064664e+03 -9.955193188221043e+02  4.993740864388730e+03  4.825714247356254e+00  2.509798495908256e+00  5.195277341796226e+00
2024-09-25T21:37:00.000000000 -4.572491980042754e+03 -8.429979822901970e+02  5.295004753543457e+03  5.147834124688411e+00  2.572509259234094e+00  4.843427329128075e+00
2024-09-25T21:38:00.000000000 -4.254482864782084e+03 -6.870287545885471e+02  5.574556365072099e+03  5.448843575142932e+00  2.624689103418922e+00  4.471783123710052e+00
2024-09-25T21:39:00.000000000 -3.919077298226352e+03 -5.282500102461750e+02  5.831253606347630e+03  5.727518176657821e+00  2.666127967662689e+00  4.081876149053919e+00
2024-09-25T21:40:00.000000000 -3.567649835784513e+03 -3.673114306174865e+02  6.064048466535072e+03  5.982726450970333e+00  2.696660012903508e+00  3.675310933107018e+00
2024-09-25T21:41:00.000000000 -3.201639981731062e+03 -2.048712835727318e+02  6.271991261251788e+03  6.213434444704423e+00  2.716164275440151e+00  3.253758185166180e+00
2024-09-25T21:42:00.000000000 -2.822546225910040e+03 -4.159372653075015e+01  6.454234368909493e+03  6.418709768957644e+00  2.724565078397034e+00  2.818947888029550e+00
2024-09-25T21:43:00.000000000 -2.431919831483820e+03  1.218539236307101e+02  6.610035549327859e+03  6.597725756828813e+00  2.721832390555237e+00  2.372661545751021e+00
2024-09-25T21:44:00.000000000 -2.031358462758548e+03  2.848038838207931e+02  6.738760771848917e+03  6.749764103160063e+00  2.707981305032631e+00  1.916723203139356e+00
2024-09-25T21:45:00.000000000 -1.622499602993835e+03  4.465906038937975e+02  6.839886530679451e+03  6.874215311993678e+00  2.683070933457191e+00  1.452991878038854e+00
2024-09-25T21:46:00.000000000 -1.207014037995265e+03  6.065533899881939e+02  6.913001760096068e+03  6.970579773103757e+00  2.647204189683160e+00  9.833563461585090e-01
2024-09-25T21:47:00.000000000 -7.865992626449791e+02  7.640390088680564e+02  6.957809478439493e+03  7.038470549115527e+00  2.600528106938003e+00  5.097288660503375e-01
2024-09-25T21:48:00.000000000 -3.629723392238770e+02  9.184044412273479e+02  6.974127938800470e+03  7.077615376065998e+00  2.543233255750029e+00  3.403669483339054e-02
2024-09-25T21:49:00.000000000  6.213666061501402e+01  1.069019335064543e+03  6.961891292621491e+03  7.087857075407578e+00  2.475552727640472e+00 -4.417850433399415e-01
2024-09-25T21:50:00.000000000  4.869917417143944e+02  1.215268594286068e+03  6.921149858998653e+03  7.069154373572637e+00  2.397761437413084e+00 -9.158005040627364e-01
2024-09-25T21:51:00.000000000  9.098578998994899e+02  1.356554840624302e+03  6.852069927350300e+03  7.021582496518203e+00  2.310175166208412e+00 -1.386081064763303e+00
2024-09-25T21:52:00.000000000  1.329008154278667e+03  1.492300838374829e+03  6.754933092768766e+03  6.945332431538585e+00  2.213148897114146e+00 -1.850713222299565e+00
2024-09-25T21:53:00.000000000  1.742730372051993e+03  1.621951769418819e+03  6.630135150519679e+03  6.840709918864397e+00  2.107075228393754e+00 -2.307805220426258e+00
2024-09-25T21:54:00.000000000  2.149334271460904e+03  1.744977492196540e+03  6.478184552588868e+03  6.708134708487401e+00  1.992383127446384e+00 -2.755493984043483e+00
2024-09-25T21:55:00.000000000  2.547158138815901e+03  1.860874660238521e+03  6.299700485752759e+03  6.548139321742831e+00  1.869536744671580e+00 -3.191952459179630e+00
2024-09-25T21:56:00.000000000  2.934575471135804e+03  1.969168776357835e+03  6.095410546246067e+03  6.361367223469107e+00  1.739033940946801e+00 -3.615396655187260e+00
2024-09-25T21:57:00.000000000  3.310001728098590e+03  2.069416198639852e+03  5.866147863877126e+03  6.148571058424995e+00  1.601404412303700e+00 -4.024092548577361e+00
2024-09-25T21:58:00.000000000  3.671900739827676e+03  2.161205964496677e+03  5.612847936373102e+03  5.910610879288411e+00  1.457207662586185e+00 -4.416363238870179e+00
2024-09-25T21:59:00.000000000  4.018791074296153e+03  2.244161518560664e+03  5.336544994459443e+03  5.648451331548384e+00  1.307030772720449e+00 -4.790596830250632e+00
2024-09-25T22:00:00.000000000  4.349252305773489e+03  2.317942310229212e+03  5.038367745250815e+03  5.363157279196010e+00  1.151485759121474e+00 -5.145254138721235e+00
2024-09-25T22:01:00.000000000  4.661930647578097e+03  2.382245169236581e+03  4.719535052749972e+03  5.055888752472995e+00  9.912071314297154e-01 -5.478874386404706e+00
2024-09-25T22:02:00.000000000  4.955544683965744e+03  2.436805626971287e+03  4.381350891330248e+03  4.727896512578759e+00  8.268500625573877e-01 -5.790079838411785e+00
2024-09-25T22:03:00.000000000  5.228890691191155e+03  2.481399119102713e+03  4.025199434699392e+03  4.380519748342414e+00  6.590886823694249e-01 -6.077580985542045e+00
2024-09-25T22:04:00.000000000  5.480847919417447e+03  2.515842007384701e+03  3.652539213282098e+03  4.015182780547317e+00  4.886125930373405e-01 -6.340184995555426e+00
2024-09-25T22:05:00.000000000  5.710383446736050e+03  2.539992392219728e+03  3.264897294868164e+03  3.633387885168365e+00  3.161227447879803e-01 -6.576803551491894e+00
2024-09-25T22:06:00.000000000  5.916556639526523e+03  2.553750696497002e+03  2.863862644429969e+03  3.236705887865907e+00  1.423286284508512e-01 -6.786457366883996e+00
2024-09-25T22:07:00.000000000  6.098523016348106e+03  2.557060113297362e+03  2.451079536010788e+03  2.826769411878363e+00 -3.205349856508163e-02 -6.968278336979569e+00
2024-09-25T22:08:00.000000000  6.255537712804497e+03  2.549906957594097e+03  2.028241196786387e+03  2.405268534783381e+00 -2.063035372316215e-01 -7.121512924395966e+00
2024-09-25T22:09:00.000000000  6.386958849622068e+03  2.532320760300935e+03  1.597082483392197e+03  1.973944411908229e+00 -3.797017084658563e-01 -7.245527166777634e+00
2024-09-25T22:10:00.000000000  6.492250366465189e+03  2.504374125882502e+03  1.159372417121655e+03  1.534580927354067e+00 -5.515318965539945e-01 -7.339810775679958e+00
2024-09-25T22:11:00.000000000  6.570984293884057e+03  2.466182472360134e+03  7.169070266039273e+02  1.088996103308037e+00 -7.210843542347480e-01 -7.403979846763036e+00
2024-09-25T22:12:00.000000000  6.622842462047795e+03  2.417903578614045e+03  2.715019279237776e+02  6.390333671961258e-01 -8.876589568610612e-01 -7.437778489636565e+00
2024-09-25T22:13:00.000000000  6.647618054455699e+03  2.359736759616266e+03 -1.750164142686370e+02  1.865521586641928e-01 -1.050568880213456e+00 -7.441078956115485e+00
2024-09-25T22:14:00.000000000  6.645215872520420e+03  2.291922072607714e+03 -6.208176115298434e+02 -2.665790845200353e-01 -1.209143263314911e+00 -7.413881833205031e+00
2024-09-25T22:15:00.000000000  6.615652990899314e+03  2.214739289029152e+03 -1.064075110822196e+03 -7.184908938679538e-01 -1.362730102406460e+00 -7.356315897710601e+00
2024-09-25T22:16:00.000000000  6.559058528099433e+03  2.128506720069857e+03 -1.502973675592543e+03 -1.167320991636147e+00 -1.510699184252852e+00 -7.268637532414975e+00
2024-09-25T22:17:00.000000000  6.475672940821653e+03  2.033579753363767e+03 -1.935717366483843e+03 -1.611222896917073e+00 -1.652445002576461e+00 -7.151229090903687e+00
2024-09-25T22:18:00.000000000  6.365846769025970e+03  1.930349289587123e+03 -2.360536913168697e+03 -2.048373980736597e+00 -1.787389380192259e+00 -7.004596828233487e+00
2024-09-25T22:19:00.000000000  6.230038888909523e+03  1.819239992419155e+03 -2.775697190214162e+03 -2.476983658426602e+00 -1.914983773775837e+00 -6.829367990277907e+00
2024-09-25T22:20:00.000000000  6.068814592420722e+03  1.700708561600328e+03 -3.179504119742990e+03 -2.895300545320316e+00 -2.034710952616531e+00 -6.626287395092583e+00
2024-09-25T22:21:00.000000000  5.882842823464411e+03  1.575241708318805e+03 -3.570311837640653e+03 -3.301619882191470e+00 -2.146087027381637e+00 -6.396213941849771e+00
2024-09-25T22:22:00.000000000  5.672893244986539e+03  1.443354126909554e+03 -3.946529322107070e+03 -3.694290755936456e+00 -2.248663678277401e+00 -6.140116536500417e+00
2024-09-25T22:23:00.000000000  5.439832687242585e+03  1.305586255581686e+03 -4.306626897327213e+03 -4.071723299264889e+00 -2.342030314012261e+00 -5.859068885729633e+00
